STARLINK-37150          
1 68315U 26057X   26085.25002315 -.00866560  27980-3 -10054-2 0  9996
2 68315  97.2816 208.1348 0001098  54.6391  45.2917 16.08887519  1923
STARLINK-37154          
1 68316U 26057Y   26085.25002315 -.00852181  27275-3 -96219-3 0  9996
2 68316  97.2814 208.1368 0001153  55.7084  48.9359 16.09310910  1823
STARLINK-37139          
1 68317U 26057Z   26085.25002315 -.00861830  27800-3 -98190-3 0  9992
2 68317  97.2814 208.1361 0001209  52.8472  50.1984 16.09171417  1677
STARLINK-37113          
1 68318U 26057AA  26085.25002315 -.00843818  26836-3 -94326-3 0  9994
2 68318  97.2815 208.1375 0001204  50.7930  55.5155 16.09465467  1923
PROGRESS-MS 33          
1 68319U 26058A   26085.80952178  .00012890  00000+0  24531-3 0  9996
2 68319  51.6341 347.7277 0006206 236.0994 123.9405 15.48566257   433
CENTISPACE-1 OBJECT B   
1 68351U 26060B   26085.49984115  .00000016  00000+0  33361-4 0  9995
2 68351  54.9834  13.0446 0012921 301.6406  58.3332 14.74920000   574
CENTISPACE-1 OBJECT C   
1 68352U 26060C   26085.83818434  .00000009  00000+0  32171-4 0  9994
2 68352  54.9837  11.6599 0012382 308.8925  51.0970 14.75105048   629
CENTISPACE-1 OBJECT D   
1 68353U 26060D   26085.43149453  .00000020  00000+0  33684-4 0  9992
2 68353  54.9857  13.3236 0012286 307.6948  52.2937 14.75149249   564
CENTISPACE-1 OBJECT E   
1 68354U 26060E   26085.43134522  .00000020  00000+0  33712-4 0  9996
2 68354  54.9769  13.3233 0012807 307.1240  52.8588 14.75205506   560
CENTISPACE-1 OBJECT F   
1 68355U 26060F   26085.29576464  .00000023  00000+0  34213-4 0  9996
2 68355  54.9787  13.8696 0013551 307.0302  52.9458 14.75232431   546
CENTISPACE-1 OBJECT G   
1 68356U 26060G   26085.76983712  .00000013  00000+0  32736-4 0  9994
2 68356  54.9889  11.9346 0013664 309.5842  50.3950 14.75314257   616
